[{"OBJECT_NAME":"FLOCK 4BE-27","OBJECT_ID":"2024-149AX","EPOCH":"2026-03-09T18:04:53.053248","MEAN_MOTION":15.32593322,"ECCENTRICITY":0.00027324,"INCLINATION":97.3862,"RA_OF_ASC_NODE":150.6783,"ARG_OF_PERICENTER":305.898,"MEAN_ANOMALY":54.2008,"EPHEMERIS_TYPE":0,"CLASSIFICATION_TYPE":"U","NORAD_CAT_ID":60513,"ELEMENT_SET_NO":999,"REV_AT_EPOCH":8690,"BSTAR":0.00036576028,"MEAN_MOTION_DOT":0.00011439,"MEAN_MOTION_DDOT":0},{"OBJECT_NAME":"STARLINK-34934","OBJECT_ID":"2025-224R","EPOCH":"2026-03-09T06:41:56.567616","MEAN_MOTION":15.30192145,"ECCENTRICITY":0.00014124,"INCLINATION":53.1605,"RA_OF_ASC_NODE":13.0952,"ARG_OF_PERICENTER":84.2251,"MEAN_ANOMALY":275.8911,"EPHEMERIS_TYPE":0,"CLASSIFICATION_TYPE":"U","NORAD_CAT_ID":65897,"ELEMENT_SET_NO":999,"REV_AT_EPOCH":2476,"BSTAR":0.00081097584,"MEAN_MOTION_DOT":0.00023731,"MEAN_MOTION_DDOT":0}]
